<?xml version="1.0" encoding="UTF-8"?>
<kml xmlns="http://www.opengis.net/kml/2.2" xmlns:gx="http://www.google.com/kml/ext/2.2">
	<Document>
		<Style>
			<LineStyle>
				<color>f8000080</color>
				<width>8.000000</width>
			</LineStyle>
		</Style>
		<ExtendedData>
			<Data name="modelName">
				<displayName>Bad Elf Model</displayName>
				<value>Bad Elf GNSS Surveyor</value>
			</Data>
			<Data name="modelSerialNumber">
				<displayName>Serial Number</displayName>
				<value>008891</value>
			</Data>
			<Data name="modelNumber">
				<displayName>Model Number</displayName>
				<value>BE-GPS-3300</value>
			</Data>
			<Data name="modelHardwareRevision">
				<displayName>H/W Version</displayName>
				<value>9.0.0</value>
			</Data>
			<Data name="modelFirmwareRevision">
				<displayName>Firmware Version</displayName>
				<value>2.1.60</value>
			</Data>
		</ExtendedData>
		<ScreenOverlay>
			<name>Bad Elf</name>
			<Icon>
				<href>http://epo.bad-elf.com/bad-elf-kml-logo.png</href>
			</Icon>
			<overlayXY x="0" y="1" xunits="fraction" yunits="fraction" />
			<screenXY x="0.01" y="0.17" xunits="fraction" yunits="fraction" />
			<size x="0.10" y="0" xunits="fraction" yunits="fraction" />
		</ScreenOverlay>
		<Placemark>
			<name>Start</name>
			<TimeStamp>
				<when>2024-10-26T14:04:57Z</when>
			</TimeStamp>
			<Point>
				<coordinates>-82.693436,34.807709,0.000000</coordinates>
			</Point>
		</Placemark>
		<Placemark>
			<name>POI 1</name>
			<TimeStamp>
				<when>2024-10-26T14:06:40Z</when>
			</TimeStamp>
			<Point>
				<coordinates>-82.693390,34.807636,0.000000</coordinates>
			</Point>
		</Placemark>
		<Placemark>
			<name>POI 2</name>
			<TimeStamp>
				<when>2024-10-26T14:07:12Z</when>
			</TimeStamp>
			<Point>
				<coordinates>-82.693420,34.807659,0.000000</coordinates>
			</Point>
		</Placemark>
		<Placemark>
			<name>POI 3</name>
			<TimeStamp>
				<when>2024-10-26T14:07:44Z</when>
			</TimeStamp>
			<Point>
				<coordinates>-82.693443,34.807522,0.000000</coordinates>
			</Point>
		</Placemark>
		<Placemark>
			<name>POI 4</name>
			<TimeStamp>
				<when>2024-10-26T14:08:38Z</when>
			</TimeStamp>
			<Point>
				<coordinates>-82.693497,34.807320,0.000000</coordinates>
			</Point>
		</Placemark>
		<Placemark>
			<name>POI 5</name>
			<TimeStamp>
				<when>2024-10-26T14:09:14Z</when>
			</TimeStamp>
			<Point>
				<coordinates>-82.693535,34.806961,0.000000</coordinates>
			</Point>
		</Placemark>
		<Placemark>
			<name>POI 6</name>
			<TimeStamp>
				<when>2024-10-26T14:09:31Z</when>
			</TimeStamp>
			<Point>
				<coordinates>-82.693550,34.806881,0.000000</coordinates>
			</Point>
		</Placemark>
		<Placemark>
			<name>POI 7</name>
			<TimeStamp>
				<when>2024-10-26T14:11:47Z</when>
			</TimeStamp>
			<Point>
				<coordinates>-82.693535,34.806339,0.000000</coordinates>
			</Point>
		</Placemark>
		<Placemark>
			<name>POI 8</name>
			<TimeStamp>
				<when>2024-10-26T14:13:01Z</when>
			</TimeStamp>
			<Point>
				<coordinates>-82.693550,34.805962,0.000000</coordinates>
			</Point>
		</Placemark>
		<Placemark>
			<name>Saturday Morning Walk</name>
			<TimeStamp>
				<when>2024-10-26T14:13:08Z</when>
			</TimeStamp>
			<Style>
				<LineStyle>
					<color>ffff0000</color>
					<width>8.000000</width>
				</LineStyle>
			</Style>
			<LineString>
				<tessellate>1</tessellate>
				<altitudeMode>absolute</altitudeMode>
				<coordinates>-82.693436,34.807709,264.899994 -82.693436,34.807713,265.000000 -82.693436,34.807713,265.200012 -82.693436,34.807716,265.399994 -82.693436,34.807716,265.500000 -82.693436,34.807716,265.399994 -82.693436,34.807716,265.500000 -82.693436,34.807716,265.500000 -82.693436,34.807716,265.600006 -82.693436,34.807716,265.600006 -82.693436,34.807716,265.600006 -82.693436,34.807716,265.600006 -82.693436,34.807716,265.600006 -82.693436,34.807720,265.700012 -82.693428,34.807720,265.799988 -82.693428,34.807720,265.899994 -82.693428,34.807724,266.000000 -82.693428,34.807724,266.000000 -82.693428,34.807724,266.000000 -82.693428,34.807724,265.899994 -82.693428,34.807724,265.899994 -82.693428,34.807724,265.799988 -82.693428,34.807724,265.799988 -82.693428,34.807724,265.700012 -82.693428,34.807724,265.700012 -82.693428,34.807720,265.600006 -82.693428,34.807720,265.500000 -82.693428,34.807720,265.399994 -82.693428,34.807720,265.299988 -82.693428,34.807716,265.299988 -82.693428,34.807716,265.200012 -82.693428,34.807716,265.100006 -82.693428,34.807716,265.100006 -82.693428,34.807713,265.000000 -82.693428,34.807713,265.000000 -82.693428,34.807713,265.000000 -82.693428,34.807713,265.000000 -82.693428,34.807713,264.899994 -82.693428,34.807709,265.000000 -82.693428,34.807709,265.000000 -82.693428,34.807705,264.899994 -82.693428,34.807701,264.799988 -82.693428,34.807701,264.600006 -82.693428,34.807697,264.399994 -82.693428,34.807693,264.299988 -82.693428,34.807693,264.200012 -82.693428,34.807690,264.100006 -82.693428,34.807690,263.799988 -82.693428,34.807686,263.600006 -82.693428,34.807686,263.399994 -82.693428,34.807682,263.299988 -82.693428,34.807682,263.100006 -82.693428,34.807678,262.700012 -82.693436,34.807674,262.399994 -82.693436,34.807674,261.899994 -82.693436,34.807671,261.700012 -82.693436,34.807671,261.299988 -82.693436,34.807667,261.100006 -82.693436,34.807667,260.899994 -82.693436,34.807667,260.700012 -82.693436,34.807667,260.500000 -82.693436,34.807667,260.299988 -82.693436,34.807663,260.200012 -82.693436,34.807663,260.100006 -82.693436,34.807663,260.100006 -82.693436,34.807659,260.100006 -82.693436,34.807663,260.200012 -82.693436,34.807663,260.299988 -82.693436,34.807663,260.399994 -82.693436,34.807667,260.700012 -82.693436,34.807667,260.799988 -82.693436,34.807667,261.000000 -82.693436,34.807667,261.200012 -82.693436,34.807667,261.399994 -82.693436,34.807671,261.500000 -82.693436,34.807671,261.700012 -82.693436,34.807667,261.700012 -82.693428,34.807671,261.500000 -82.693428,34.807671,261.200012 -82.693428,34.807667,260.799988 -82.693428,34.807667,260.399994 -82.693428,34.807663,259.700012 -82.693428,34.807659,259.200012 -82.693420,34.807659,258.500000 -82.693420,34.807659,257.600006 -82.693420,34.807655,257.000000 -82.693420,34.807655,256.600006 -82.693413,34.807655,256.600006 -82.693413,34.807652,256.399994 -82.693413,34.807652,256.899994 -82.693413,34.807652,256.299988 -82.693413,34.807652,256.799988 -82.693413,34.807652,257.899994 -82.693405,34.807652,258.799988 -82.693405,34.807648,259.100006 -82.693398,34.807648,258.500000 -82.693398,34.807644,258.700012 -82.693398,34.807644,259.600006 -82.693398,34.807644,260.200012 -82.693398,34.807640,260.600006 -82.693398,34.807640,260.399994 -82.693390,34.807636,259.500000 -82.693390,34.807636,258.600006 -82.693390,34.807636,258.600006 -82.693390,34.807632,258.100006 -82.693390,34.807632,257.399994 -82.693382,34.807632,256.000000 -82.693390,34.807636,256.600006 -82.693398,34.807636,257.000000 -82.693405,34.807636,257.600006 -82.693405,34.807636,258.200012 -82.693413,34.807640,259.299988 -82.693413,34.807640,259.799988 -82.693413,34.807640,260.200012 -82.693413,34.807640,260.600006 -82.693413,34.807644,260.799988 -82.693413,34.807644,261.000000 -82.693420,34.807644,261.299988 -82.693420,34.807644,261.500000 -82.693420,34.807648,261.600006 -82.693420,34.807652,261.700012 -82.693420,34.807652,261.799988 -82.693420,34.807652,261.799988 -82.693420,34.807655,261.899994 -82.693420,34.807655,262.000000 -82.693420,34.807655,262.000000 -82.693420,34.807659,262.000000 -82.693420,34.807659,261.899994 -82.693420,34.807659,261.799988 -82.693420,34.807659,261.700012 -82.693420,34.807659,261.399994 -82.693428,34.807659,261.299988 -82.693420,34.807659,261.200012 -82.693428,34.807659,261.200012 -82.693420,34.807659,260.899994 -82.693420,34.807659,260.700012 -82.693420,34.807659,260.700012 -82.693420,34.807659,260.399994 -82.693420,34.807659,260.700012 -82.693420,34.807655,260.799988 -82.693420,34.807655,261.299988 -82.693420,34.807652,262.299988 -82.693428,34.807648,262.100006 -82.693428,34.807640,262.200012 -82.693428,34.807640,263.200012 -82.693428,34.807632,263.299988 -82.693428,34.807632,263.200012 -82.693428,34.807636,263.000000 -82.693428,34.807632,263.399994 -82.693428,34.807629,263.700012 -82.693420,34.807629,263.700012 -82.693428,34.807625,264.500000 -82.693428,34.807621,265.200012 -82.693428,34.807613,264.899994 -82.693428,34.807610,264.799988 -82.693420,34.807594,264.200012 -82.693420,34.807583,264.000000 -82.693428,34.807571,264.200012 -82.693428,34.807564,263.600006 -82.693428,34.807549,263.899994 -82.693428,34.807541,264.000000 -82.693428,34.807533,264.200012 -82.693436,34.807526,264.000000 -82.693436,34.807526,263.899994 -82.693436,34.807522,263.600006 -82.693436,34.807522,263.700012 -82.693443,34.807522,264.500000 -82.693443,34.807522,264.700012 -82.693443,34.807522,265.100006 -82.693443,34.807522,265.100006 -82.693451,34.807522,265.000000 -82.693451,34.807518,265.000000 -82.693451,34.807510,265.500000 -82.693459,34.807507,265.100006 -82.693459,34.807507,265.399994 -82.693459,34.807507,265.399994 -82.693459,34.807503,265.700012 -82.693459,34.807499,265.100006 -82.693459,34.807495,265.200012 -82.693459,34.807491,264.899994 -82.693459,34.807491,265.100006 -82.693459,34.807480,264.799988 -82.693466,34.807476,264.500000 -82.693466,34.807468,265.799988 -82.693466,34.807468,265.500000 -82.693466,34.807461,265.500000 -82.693466,34.807457,265.200012 -82.693474,34.807449,264.899994 -82.693474,34.807446,265.100006 -82.693474,34.807442,265.000000 -82.693474,34.807434,265.000000 -82.693474,34.807426,265.200012 -82.693474,34.807426,265.000000 -82.693474,34.807419,264.799988 -82.693474,34.807411,264.700012 -82.693474,34.807400,264.799988 -82.693474,34.807396,265.000000 -82.693466,34.807392,264.500000 -82.693466,34.807384,264.500000 -82.693466,34.807384,264.500000 -82.693474,34.807381,264.399994 -82.693474,34.807377,264.399994 -82.693474,34.807369,264.399994 -82.693474,34.807365,264.399994 -82.693474,34.807362,264.100006 -82.693481,34.807354,263.700012 -82.693481,34.807346,263.700012 -82.693481,34.807335,263.600006 -82.693481,34.807327,263.799988 -82.693489,34.807323,264.200012 -82.693489,34.807316,263.899994 -82.693489,34.807308,264.000000 -82.693497,34.807297,264.000000 -82.693497,34.807285,264.500000 -82.693497,34.807278,264.600006 -82.693497,34.807281,265.399994 -82.693497,34.807289,265.000000 -82.693497,34.807301,265.000000 -82.693497,34.807308,264.799988 -82.693497,34.807320,264.299988 -82.693497,34.807320,264.500000 -82.693497,34.807320,264.799988 -82.693497,34.807320,265.200012 -82.693497,34.807320,265.500000 -82.693497,34.807320,265.500000 -82.693497,34.807320,265.700012 -82.693497,34.807320,265.700012 -82.693497,34.807312,265.700012 -82.693497,34.807301,265.600006 -82.693497,34.807289,265.500000 -82.693497,34.807278,265.799988 -82.693504,34.807266,265.799988 -82.693504,34.807255,266.299988 -82.693504,34.807240,266.700012 -82.693512,34.807228,267.200012 -82.693512,34.807217,267.500000 -82.693512,34.807205,267.799988 -82.693512,34.807194,267.799988 -82.693512,34.807182,268.100006 -82.693520,34.807171,268.200012 -82.693520,34.807156,268.200012 -82.693520,34.807144,268.500000 -82.693520,34.807137,267.799988 -82.693520,34.807125,268.000000 -82.693520,34.807114,268.100006 -82.693520,34.807102,268.299988 -82.693520,34.807095,268.200012 -82.693520,34.807083,268.500000 -82.693520,34.807072,268.600006 -82.693527,34.807060,268.700012 -82.693527,34.807045,268.700012 -82.693527,34.807034,269.000000 -82.693527,34.807022,268.899994 -82.693527,34.807007,268.899994 -82.693527,34.806995,268.899994 -82.693527,34.806984,269.299988 -82.693527,34.806973,269.399994 -82.693535,34.806965,269.500000 -82.693535,34.806965,269.799988 -82.693535,34.806965,269.899994 -82.693535,34.806961,270.000000 -82.693535,34.806961,270.000000 -82.693535,34.806961,270.000000 -82.693535,34.806961,270.000000 -82.693527,34.806950,270.000000 -82.693535,34.806942,270.000000 -82.693535,34.806934,270.399994 -82.693535,34.806927,270.500000 -82.693542,34.806923,270.399994 -82.693542,34.806919,270.799988 -82.693550,34.806911,270.899994 -82.693550,34.806908,271.299988 -82.693558,34.806896,271.399994 -82.693550,34.806885,271.500000 -82.693550,34.806877,271.700012 -82.693550,34.806881,271.700012 -82.693550,34.806881,271.799988 -82.693550,34.806881,271.799988 -82.693550,34.806881,271.899994 -82.693550,34.806881,271.899994 -82.693550,34.806881,272.000000 -82.693550,34.806877,272.299988 -82.693550,34.806870,272.399994 -82.693550,34.806862,272.500000 -82.693550,34.806850,272.700012 -82.693558,34.806839,272.799988 -82.693565,34.806831,273.100006 -82.693565,34.806820,273.000000 -82.693565,34.806812,273.100006 -82.693558,34.806805,273.200012 -82.693558,34.806797,273.500000 -82.693550,34.806789,273.399994 -82.693550,34.806786,273.299988 -82.693550,34.806782,273.200012 -82.693550,34.806770,273.000000 -82.693550,34.806767,272.600006 -82.693550,34.806763,272.700012 -82.693550,34.806755,273.000000 -82.693542,34.806759,273.299988 -82.693550,34.806763,273.399994 -82.693542,34.806763,273.500000 -82.693542,34.806755,273.899994 -82.693542,34.806751,273.700012 -82.693542,34.806747,273.500000 -82.693542,34.806747,273.200012 -82.693542,34.806747,273.200012 -82.693535,34.806747,273.299988 -82.693542,34.806744,273.299988 -82.693535,34.806740,273.399994 -82.693535,34.806740,273.399994 -82.693527,34.806740,273.200012 -82.693527,34.806736,273.100006 -82.693527,34.806728,273.200012 -82.693527,34.806725,273.000000 -82.693527,34.806721,273.399994 -82.693527,34.806717,273.399994 -82.693527,34.806709,273.600006 -82.693527,34.806702,273.600006 -82.693527,34.806690,274.100006 -82.693527,34.806683,274.100006 -82.693527,34.806671,274.200012 -82.693527,34.806660,273.700012 -82.693527,34.806652,273.500000 -82.693527,34.806641,273.799988 -82.693520,34.806629,273.500000 -82.693527,34.806622,273.799988 -82.693527,34.806610,273.399994 -82.693535,34.806606,273.000000 -82.693535,34.806602,273.200012 -82.693535,34.806595,273.100006 -82.693535,34.806583,272.799988 -82.693535,34.806576,272.399994 -82.693527,34.806568,272.000000 -82.693520,34.806561,273.100006 -82.693520,34.806557,272.899994 -82.693527,34.806549,272.700012 -82.693535,34.806545,272.500000 -82.693527,34.806541,273.299988 -82.693527,34.806541,273.500000 -82.693520,34.806534,273.799988 -82.693520,34.806526,273.399994 -82.693520,34.806526,273.000000 -82.693520,34.806526,273.500000 -82.693520,34.806526,273.700012 -82.693512,34.806526,274.000000 -82.693512,34.806526,274.200012 -82.693512,34.806526,274.299988 -82.693512,34.806526,274.299988 -82.693512,34.806526,274.000000 -82.693504,34.806522,273.700012 -82.693504,34.806519,273.000000 -82.693512,34.806507,273.500000 -82.693512,34.806499,273.700012 -82.693520,34.806492,272.899994 -82.693527,34.806484,273.100006 -82.693535,34.806480,273.399994 -82.693535,34.806473,273.299988 -82.693527,34.806461,273.799988 -82.693527,34.806454,274.500000 -82.693527,34.806446,274.299988 -82.693527,34.806438,273.799988 -82.693535,34.806431,273.200012 -82.693527,34.806427,273.799988 -82.693527,34.806431,274.700012 -82.693520,34.806427,274.700012 -82.693520,34.806423,274.899994 -82.693520,34.806419,274.700012 -82.693520,34.806416,274.700012 -82.693527,34.806412,274.500000 -82.693527,34.806412,275.200012 -82.693527,34.806412,274.399994 -82.693527,34.806408,274.500000 -82.693527,34.806400,274.399994 -82.693527,34.806396,274.399994 -82.693527,34.806396,274.399994 -82.693527,34.806396,274.500000 -82.693527,34.806396,274.500000 -82.693535,34.806396,274.399994 -82.693535,34.806396,274.600006 -82.693527,34.806393,275.100006 -82.693527,34.806393,275.299988 -82.693535,34.806393,275.600006 -82.693535,34.806393,276.100006 -82.693527,34.806393,276.200012 -82.693527,34.806393,276.500000 -82.693527,34.806393,276.399994 -82.693535,34.806389,276.399994 -82.693527,34.806385,276.299988 -82.693535,34.806381,276.600006 -82.693535,34.806377,276.700012 -82.693535,34.806377,276.799988 -82.693535,34.806374,276.899994 -82.693535,34.806370,276.799988 -82.693535,34.806366,276.399994 -82.693535,34.806358,276.299988 -82.693535,34.806347,276.700012 -82.693535,34.806339,278.100006 -82.693535,34.806320,278.200012 -82.693535,34.806309,278.200012 -82.693535,34.806297,278.100006 -82.693535,34.806286,278.100006 -82.693535,34.806274,278.399994 -82.693535,34.806267,278.399994 -82.693535,34.806271,278.700012 -82.693542,34.806274,278.600006 -82.693535,34.806286,278.700012 -82.693542,34.806297,278.299988 -82.693542,34.806309,278.299988 -82.693535,34.806316,278.100006 -82.693535,34.806324,277.799988 -82.693535,34.806332,277.799988 -82.693535,34.806339,277.600006 -82.693535,34.806339,277.700012 -82.693535,34.806339,277.700012 -82.693535,34.806339,277.799988 -82.693535,34.806339,277.799988 -82.693535,34.806316,278.000000 -82.693535,34.806301,278.299988 -82.693535,34.806290,278.500000 -82.693535,34.806278,278.399994 -82.693535,34.806271,278.399994 -82.693535,34.806259,278.399994 -82.693527,34.806248,278.399994 -82.693527,34.806236,278.600006 -82.693527,34.806225,278.600006 -82.693520,34.806217,279.200012 -82.693527,34.806210,279.200012 -82.693527,34.806194,279.299988 -82.693527,34.806187,279.299988 -82.693535,34.806171,279.700012 -82.693535,34.806156,279.700012 -82.693527,34.806145,279.700012 -82.693527,34.806129,279.799988 -82.693520,34.806118,279.899994 -82.693520,34.806107,279.899994 -82.693520,34.806091,279.899994 -82.693520,34.806080,280.100006 -82.693520,34.806068,280.299988 -82.693527,34.806057,280.299988 -82.693527,34.806049,280.200012 -82.693527,34.806046,280.299988 -82.693527,34.806038,280.200012 -82.693527,34.806026,280.399994 -82.693527,34.806015,280.600006 -82.693535,34.806004,280.899994 -82.693535,34.805996,281.100006 -82.693535,34.805984,281.200012 -82.693535,34.805977,281.000000 -82.693535,34.805977,281.100006 -82.693535,34.805973,281.200012 -82.693535,34.805973,281.299988 -82.693535,34.805969,281.100006 -82.693535,34.805969,281.100006 -82.693535,34.805969,281.100006 -82.693535,34.805969,281.200012 -82.693535,34.805969,281.100006 -82.693535,34.805969,281.000000 -82.693535,34.805969,281.000000 -82.693535,34.805969,281.000000 -82.693535,34.805969,281.000000 -82.693535,34.805965,281.000000 -82.693535,34.805965,281.000000 -82.693535,34.805965,281.000000 -82.693535,34.805965,280.899994 -82.693535,34.805965,280.799988 -82.693542,34.805965,280.899994 -82.693542,34.805965,280.899994 -82.693542,34.805965,281.000000 -82.693542,34.805965,281.000000 -82.693542,34.805962,281.200012 -82.693542,34.805962,281.200012 -82.693542,34.805962,281.299988 -82.693542,34.805962,281.399994 -82.693542,34.805962,281.500000 -82.693542,34.805962,281.500000 -82.693542,34.805962,281.600006 -82.693542,34.805962,281.600006 -82.693542,34.805962,281.600006 -82.693542,34.805962,281.700012 -82.693542,34.805962,281.799988 -82.693550,34.805962,281.899994 -82.693550,34.805962,282.000000 -82.693550,34.805962,282.000000 -82.693550,34.805962,282.100006 -82.693550,34.805962,282.100006 -82.693550,34.805962,282.200012 -82.693550,34.805962,282.200012 -82.693550,34.805962,282.299988 -82.693550,34.805962,282.500000 -82.693550,34.805962,282.600006 -82.693550,34.805962,282.600006 -82.693550,34.805962,282.700012 -82.693558,34.805962,282.799988 -82.693558,34.805962,282.899994 </coordinates>
			</LineString>
		</Placemark>
		<Placemark>
			<Style>
				<LineStyle>
					<color>ff0000ff</color>
					<width>8.000000</width>
				</LineStyle>
			</Style>
			<gx:Track>
				<altitudeMode>absolute</altitudeMode>
				<when>2024-10-26T14:04:57Z</when>
				<when>2024-10-26T14:04:58Z</when>
				<when>2024-10-26T14:04:59Z</when>
				<when>2024-10-26T14:05:00Z</when>
				<when>2024-10-26T14:05:01Z</when>
				<when>2024-10-26T14:05:02Z</when>
				<when>2024-10-26T14:05:03Z</when>
				<when>2024-10-26T14:05:04Z</when>
				<when>2024-10-26T14:05:06Z</when>
				<when>2024-10-26T14:05:07Z</when>
				<when>2024-10-26T14:05:08Z</when>
				<when>2024-10-26T14:05:09Z</when>
				<when>2024-10-26T14:05:10Z</when>
				<when>2024-10-26T14:05:11Z</when>
				<when>2024-10-26T14:05:12Z</when>
				<when>2024-10-26T14:05:13Z</when>
				<when>2024-10-26T14:05:14Z</when>
				<when>2024-10-26T14:05:15Z</when>
				<when>2024-10-26T14:05:16Z</when>
				<when>2024-10-26T14:05:17Z</when>
				<when>2024-10-26T14:05:18Z</when>
				<when>2024-10-26T14:05:19Z</when>
				<when>2024-10-26T14:05:20Z</when>
				<when>2024-10-26T14:05:21Z</when>
				<when>2024-10-26T14:05:22Z</when>
				<when>2024-10-26T14:05:23Z</when>
				<when>2024-10-26T14:05:24Z</when>
				<when>2024-10-26T14:05:25Z</when>
				<when>2024-10-26T14:05:26Z</when>
				<when>2024-10-26T14:05:27Z</when>
				<when>2024-10-26T14:05:28Z</when>
				<when>2024-10-26T14:05:29Z</when>
				<when>2024-10-26T14:05:30Z</when>
				<when>2024-10-26T14:05:31Z</when>
				<when>2024-10-26T14:05:32Z</when>
				<when>2024-10-26T14:05:33Z</when>
				<when>2024-10-26T14:05:34Z</when>
				<when>2024-10-26T14:05:35Z</when>
				<when>2024-10-26T14:05:36Z</when>
				<when>2024-10-26T14:05:37Z</when>
				<when>2024-10-26T14:05:38Z</when>
				<when>2024-10-26T14:05:39Z</when>
				<when>2024-10-26T14:05:40Z</when>
				<when>2024-10-26T14:05:41Z</when>
				<when>2024-10-26T14:05:42Z</when>
				<when>2024-10-26T14:05:43Z</when>
				<when>2024-10-26T14:05:44Z</when>
				<when>2024-10-26T14:05:45Z</when>
				<when>2024-10-26T14:05:46Z</when>
				<when>2024-10-26T14:05:47Z</when>
				<when>2024-10-26T14:05:48Z</when>
				<when>2024-10-26T14:05:49Z</when>
				<when>2024-10-26T14:05:50Z</when>
				<when>2024-10-26T14:05:51Z</when>
				<when>2024-10-26T14:05:52Z</when>
				<when>2024-10-26T14:05:53Z</when>
				<when>2024-10-26T14:05:54Z</when>
				<when>2024-10-26T14:05:55Z</when>
				<when>2024-10-26T14:05:56Z</when>
				<when>2024-10-26T14:05:57Z</when>
				<when>2024-10-26T14:05:58Z</when>
				<when>2024-10-26T14:05:59Z</when>
				<when>2024-10-26T14:06:00Z</when>
				<when>2024-10-26T14:06:01Z</when>
				<when>2024-10-26T14:06:02Z</when>
				<when>2024-10-26T14:06:03Z</when>
				<when>2024-10-26T14:06:04Z</when>
				<when>2024-10-26T14:06:05Z</when>
				<when>2024-10-26T14:06:06Z</when>
				<when>2024-10-26T14:06:07Z</when>
				<when>2024-10-26T14:06:08Z</when>
				<when>2024-10-26T14:06:09Z</when>
				<when>2024-10-26T14:06:10Z</when>
				<when>2024-10-26T14:06:11Z</when>
				<when>2024-10-26T14:06:12Z</when>
				<when>2024-10-26T14:06:13Z</when>
				<when>2024-10-26T14:06:14Z</when>
				<when>2024-10-26T14:06:15Z</when>
				<when>2024-10-26T14:06:16Z</when>
				<when>2024-10-26T14:06:17Z</when>
				<when>2024-10-26T14:06:18Z</when>
				<when>2024-10-26T14:06:19Z</when>
				<when>2024-10-26T14:06:20Z</when>
				<when>2024-10-26T14:06:21Z</when>
				<when>2024-10-26T14:06:22Z</when>
				<when>2024-10-26T14:06:23Z</when>
				<when>2024-10-26T14:06:24Z</when>
				<when>2024-10-26T14:06:25Z</when>
				<when>2024-10-26T14:06:26Z</when>
				<when>2024-10-26T14:06:27Z</when>
				<when>2024-10-26T14:06:28Z</when>
				<when>2024-10-26T14:06:29Z</when>
				<when>2024-10-26T14:06:30Z</when>
				<when>2024-10-26T14:06:31Z</when>
				<when>2024-10-26T14:06:32Z</when>
				<when>2024-10-26T14:06:33Z</when>
				<when>2024-10-26T14:06:34Z</when>
				<when>2024-10-26T14:06:35Z</when>
				<when>2024-10-26T14:06:36Z</when>
				<when>2024-10-26T14:06:37Z</when>
				<when>2024-10-26T14:06:38Z</when>
				<when>2024-10-26T14:06:39Z</when>
				<when>2024-10-26T14:06:40Z</when>
				<when>2024-10-26T14:06:40Z</when>
				<when>2024-10-26T14:06:41Z</when>
				<when>2024-10-26T14:06:42Z</when>
				<when>2024-10-26T14:06:43Z</when>
				<when>2024-10-26T14:06:44Z</when>
				<when>2024-10-26T14:06:45Z</when>
				<when>2024-10-26T14:06:46Z</when>
				<when>2024-10-26T14:06:47Z</when>
				<when>2024-10-26T14:06:48Z</when>
				<when>2024-10-26T14:06:49Z</when>
				<when>2024-10-26T14:06:50Z</when>
				<when>2024-10-26T14:06:51Z</when>
				<when>2024-10-26T14:06:52Z</when>
				<when>2024-10-26T14:06:53Z</when>
				<when>2024-10-26T14:06:54Z</when>
				<when>2024-10-26T14:06:55Z</when>
				<when>2024-10-26T14:06:56Z</when>
				<when>2024-10-26T14:06:57Z</when>
				<when>2024-10-26T14:06:58Z</when>
				<when>2024-10-26T14:06:59Z</when>
				<when>2024-10-26T14:07:00Z</when>
				<when>2024-10-26T14:07:01Z</when>
				<when>2024-10-26T14:07:02Z</when>
				<when>2024-10-26T14:07:03Z</when>
				<when>2024-10-26T14:07:04Z</when>
				<when>2024-10-26T14:07:05Z</when>
				<when>2024-10-26T14:07:06Z</when>
				<when>2024-10-26T14:07:07Z</when>
				<when>2024-10-26T14:07:08Z</when>
				<when>2024-10-26T14:07:09Z</when>
				<when>2024-10-26T14:07:10Z</when>
				<when>2024-10-26T14:07:11Z</when>
				<when>2024-10-26T14:07:12Z</when>
				<when>2024-10-26T14:07:12Z</when>
				<when>2024-10-26T14:07:13Z</when>
				<when>2024-10-26T14:07:14Z</when>
				<when>2024-10-26T14:07:15Z</when>
				<when>2024-10-26T14:07:16Z</when>
				<when>2024-10-26T14:07:17Z</when>
				<when>2024-10-26T14:07:18Z</when>
				<when>2024-10-26T14:07:19Z</when>
				<when>2024-10-26T14:07:20Z</when>
				<when>2024-10-26T14:07:21Z</when>
				<when>2024-10-26T14:07:22Z</when>
				<when>2024-10-26T14:07:23Z</when>
				<when>2024-10-26T14:07:24Z</when>
				<when>2024-10-26T14:07:25Z</when>
				<when>2024-10-26T14:07:26Z</when>
				<when>2024-10-26T14:07:27Z</when>
				<when>2024-10-26T14:07:28Z</when>
				<when>2024-10-26T14:07:29Z</when>
				<when>2024-10-26T14:07:30Z</when>
				<when>2024-10-26T14:07:31Z</when>
				<when>2024-10-26T14:07:32Z</when>
				<when>2024-10-26T14:07:33Z</when>
				<when>2024-10-26T14:07:34Z</when>
				<when>2024-10-26T14:07:35Z</when>
				<when>2024-10-26T14:07:36Z</when>
				<when>2024-10-26T14:07:37Z</when>
				<when>2024-10-26T14:07:38Z</when>
				<when>2024-10-26T14:07:39Z</when>
				<when>2024-10-26T14:07:40Z</when>
				<when>2024-10-26T14:07:41Z</when>
				<when>2024-10-26T14:07:42Z</when>
				<when>2024-10-26T14:07:43Z</when>
				<when>2024-10-26T14:07:44Z</when>
				<when>2024-10-26T14:07:44Z</when>
				<when>2024-10-26T14:07:45Z</when>
				<when>2024-10-26T14:07:46Z</when>
				<when>2024-10-26T14:07:47Z</when>
				<when>2024-10-26T14:07:48Z</when>
				<when>2024-10-26T14:07:49Z</when>
				<when>2024-10-26T14:07:50Z</when>
				<when>2024-10-26T14:07:51Z</when>
				<when>2024-10-26T14:07:52Z</when>
				<when>2024-10-26T14:07:53Z</when>
				<when>2024-10-26T14:07:54Z</when>
				<when>2024-10-26T14:07:55Z</when>
				<when>2024-10-26T14:07:56Z</when>
				<when>2024-10-26T14:07:57Z</when>
				<when>2024-10-26T14:07:58Z</when>
				<when>2024-10-26T14:07:59Z</when>
				<when>2024-10-26T14:08:00Z</when>
				<when>2024-10-26T14:08:01Z</when>
				<when>2024-10-26T14:08:02Z</when>
				<when>2024-10-26T14:08:03Z</when>
				<when>2024-10-26T14:08:04Z</when>
				<when>2024-10-26T14:08:05Z</when>
				<when>2024-10-26T14:08:06Z</when>
				<when>2024-10-26T14:08:07Z</when>
				<when>2024-10-26T14:08:08Z</when>
				<when>2024-10-26T14:08:09Z</when>
				<when>2024-10-26T14:08:10Z</when>
				<when>2024-10-26T14:08:11Z</when>
				<when>2024-10-26T14:08:12Z</when>
				<when>2024-10-26T14:08:13Z</when>
				<when>2024-10-26T14:08:14Z</when>
				<when>2024-10-26T14:08:15Z</when>
				<when>2024-10-26T14:08:16Z</when>
				<when>2024-10-26T14:08:17Z</when>
				<when>2024-10-26T14:08:18Z</when>
				<when>2024-10-26T14:08:19Z</when>
				<when>2024-10-26T14:08:20Z</when>
				<when>2024-10-26T14:08:21Z</when>
				<when>2024-10-26T14:08:22Z</when>
				<when>2024-10-26T14:08:23Z</when>
				<when>2024-10-26T14:08:24Z</when>
				<when>2024-10-26T14:08:25Z</when>
				<when>2024-10-26T14:08:26Z</when>
				<when>2024-10-26T14:08:27Z</when>
				<when>2024-10-26T14:08:28Z</when>
				<when>2024-10-26T14:08:29Z</when>
				<when>2024-10-26T14:08:30Z</when>
				<when>2024-10-26T14:08:31Z</when>
				<when>2024-10-26T14:08:32Z</when>
				<when>2024-10-26T14:08:33Z</when>
				<when>2024-10-26T14:08:34Z</when>
				<when>2024-10-26T14:08:35Z</when>
				<when>2024-10-26T14:08:36Z</when>
				<when>2024-10-26T14:08:37Z</when>
				<when>2024-10-26T14:08:38Z</when>
				<when>2024-10-26T14:08:38Z</when>
				<when>2024-10-26T14:08:39Z</when>
				<when>2024-10-26T14:08:40Z</when>
				<when>2024-10-26T14:08:41Z</when>
				<when>2024-10-26T14:08:42Z</when>
				<when>2024-10-26T14:08:43Z</when>
				<when>2024-10-26T14:08:44Z</when>
				<when>2024-10-26T14:08:45Z</when>
				<when>2024-10-26T14:08:46Z</when>
				<when>2024-10-26T14:08:47Z</when>
				<when>2024-10-26T14:08:48Z</when>
				<when>2024-10-26T14:08:49Z</when>
				<when>2024-10-26T14:08:50Z</when>
				<when>2024-10-26T14:08:51Z</when>
				<when>2024-10-26T14:08:52Z</when>
				<when>2024-10-26T14:08:53Z</when>
				<when>2024-10-26T14:08:54Z</when>
				<when>2024-10-26T14:08:55Z</when>
				<when>2024-10-26T14:08:56Z</when>
				<when>2024-10-26T14:08:57Z</when>
				<when>2024-10-26T14:08:58Z</when>
				<when>2024-10-26T14:08:59Z</when>
				<when>2024-10-26T14:09:00Z</when>
				<when>2024-10-26T14:09:01Z</when>
				<when>2024-10-26T14:09:02Z</when>
				<when>2024-10-26T14:09:03Z</when>
				<when>2024-10-26T14:09:04Z</when>
				<when>2024-10-26T14:09:05Z</when>
				<when>2024-10-26T14:09:06Z</when>
				<when>2024-10-26T14:09:07Z</when>
				<when>2024-10-26T14:09:08Z</when>
				<when>2024-10-26T14:09:09Z</when>
				<when>2024-10-26T14:09:10Z</when>
				<when>2024-10-26T14:09:11Z</when>
				<when>2024-10-26T14:09:12Z</when>
				<when>2024-10-26T14:09:13Z</when>
				<when>2024-10-26T14:09:14Z</when>
				<when>2024-10-26T14:09:14Z</when>
				<when>2024-10-26T14:09:15Z</when>
				<when>2024-10-26T14:09:16Z</when>
				<when>2024-10-26T14:09:17Z</when>
				<when>2024-10-26T14:09:18Z</when>
				<when>2024-10-26T14:09:19Z</when>
				<when>2024-10-26T14:09:20Z</when>
				<when>2024-10-26T14:09:21Z</when>
				<when>2024-10-26T14:09:22Z</when>
				<when>2024-10-26T14:09:23Z</when>
				<when>2024-10-26T14:09:24Z</when>
				<when>2024-10-26T14:09:25Z</when>
				<when>2024-10-26T14:09:26Z</when>
				<when>2024-10-26T14:09:27Z</when>
				<when>2024-10-26T14:09:28Z</when>
				<when>2024-10-26T14:09:29Z</when>
				<when>2024-10-26T14:09:30Z</when>
				<when>2024-10-26T14:09:31Z</when>
				<when>2024-10-26T14:09:31Z</when>
				<when>2024-10-26T14:09:32Z</when>
				<when>2024-10-26T14:09:33Z</when>
				<when>2024-10-26T14:09:34Z</when>
				<when>2024-10-26T14:09:35Z</when>
				<when>2024-10-26T14:09:36Z</when>
				<when>2024-10-26T14:09:37Z</when>
				<when>2024-10-26T14:09:38Z</when>
				<when>2024-10-26T14:09:39Z</when>
				<when>2024-10-26T14:09:40Z</when>
				<when>2024-10-26T14:09:41Z</when>
				<when>2024-10-26T14:09:42Z</when>
				<when>2024-10-26T14:09:43Z</when>
				<when>2024-10-26T14:09:44Z</when>
				<when>2024-10-26T14:09:45Z</when>
				<when>2024-10-26T14:09:46Z</when>
				<when>2024-10-26T14:09:47Z</when>
				<when>2024-10-26T14:09:48Z</when>
				<when>2024-10-26T14:09:49Z</when>
				<when>2024-10-26T14:09:50Z</when>
				<when>2024-10-26T14:09:51Z</when>
				<when>2024-10-26T14:09:52Z</when>
				<when>2024-10-26T14:09:53Z</when>
				<when>2024-10-26T14:09:54Z</when>
				<when>2024-10-26T14:09:55Z</when>
				<when>2024-10-26T14:09:56Z</when>
				<when>2024-10-26T14:09:57Z</when>
				<when>2024-10-26T14:09:58Z</when>
				<when>2024-10-26T14:09:59Z</when>
				<when>2024-10-26T14:10:00Z</when>
				<when>2024-10-26T14:10:01Z</when>
				<when>2024-10-26T14:10:02Z</when>
				<when>2024-10-26T14:10:03Z</when>
				<when>2024-10-26T14:10:04Z</when>
				<when>2024-10-26T14:10:05Z</when>
				<when>2024-10-26T14:10:06Z</when>
				<when>2024-10-26T14:10:07Z</when>
				<when>2024-10-26T14:10:08Z</when>
				<when>2024-10-26T14:10:09Z</when>
				<when>2024-10-26T14:10:10Z</when>
				<when>2024-10-26T14:10:11Z</when>
				<when>2024-10-26T14:10:12Z</when>
				<when>2024-10-26T14:10:13Z</when>
				<when>2024-10-26T14:10:14Z</when>
				<when>2024-10-26T14:10:15Z</when>
				<when>2024-10-26T14:10:16Z</when>
				<when>2024-10-26T14:10:17Z</when>
				<when>2024-10-26T14:10:18Z</when>
				<when>2024-10-26T14:10:19Z</when>
				<when>2024-10-26T14:10:20Z</when>
				<when>2024-10-26T14:10:21Z</when>
				<when>2024-10-26T14:10:22Z</when>
				<when>2024-10-26T14:10:23Z</when>
				<when>2024-10-26T14:10:24Z</when>
				<when>2024-10-26T14:10:25Z</when>
				<when>2024-10-26T14:10:26Z</when>
				<when>2024-10-26T14:10:27Z</when>
				<when>2024-10-26T14:10:28Z</when>
				<when>2024-10-26T14:10:29Z</when>
				<when>2024-10-26T14:10:30Z</when>
				<when>2024-10-26T14:10:31Z</when>
				<when>2024-10-26T14:10:32Z</when>
				<when>2024-10-26T14:10:33Z</when>
				<when>2024-10-26T14:10:34Z</when>
				<when>2024-10-26T14:10:35Z</when>
				<when>2024-10-26T14:10:36Z</when>
				<when>2024-10-26T14:10:37Z</when>
				<when>2024-10-26T14:10:38Z</when>
				<when>2024-10-26T14:10:39Z</when>
				<when>2024-10-26T14:10:40Z</when>
				<when>2024-10-26T14:10:41Z</when>
				<when>2024-10-26T14:10:42Z</when>
				<when>2024-10-26T14:10:43Z</when>
				<when>2024-10-26T14:10:44Z</when>
				<when>2024-10-26T14:10:45Z</when>
				<when>2024-10-26T14:10:46Z</when>
				<when>2024-10-26T14:10:47Z</when>
				<when>2024-10-26T14:10:48Z</when>
				<when>2024-10-26T14:10:49Z</when>
				<when>2024-10-26T14:10:50Z</when>
				<when>2024-10-26T14:10:51Z</when>
				<when>2024-10-26T14:10:52Z</when>
				<when>2024-10-26T14:10:53Z</when>
				<when>2024-10-26T14:10:54Z</when>
				<when>2024-10-26T14:10:55Z</when>
				<when>2024-10-26T14:10:56Z</when>
				<when>2024-10-26T14:10:57Z</when>
				<when>2024-10-26T14:10:58Z</when>
				<when>2024-10-26T14:10:59Z</when>
				<when>2024-10-26T14:11:00Z</when>
				<when>2024-10-26T14:11:01Z</when>
				<when>2024-10-26T14:11:02Z</when>
				<when>2024-10-26T14:11:03Z</when>
				<when>2024-10-26T14:11:04Z</when>
				<when>2024-10-26T14:11:05Z</when>
				<when>2024-10-26T14:11:06Z</when>
				<when>2024-10-26T14:11:07Z</when>
				<when>2024-10-26T14:11:08Z</when>
				<when>2024-10-26T14:11:09Z</when>
				<when>2024-10-26T14:11:10Z</when>
				<when>2024-10-26T14:11:11Z</when>
				<when>2024-10-26T14:11:12Z</when>
				<when>2024-10-26T14:11:13Z</when>
				<when>2024-10-26T14:11:14Z</when>
				<when>2024-10-26T14:11:15Z</when>
				<when>2024-10-26T14:11:16Z</when>
				<when>2024-10-26T14:11:17Z</when>
				<when>2024-10-26T14:11:18Z</when>
				<when>2024-10-26T14:11:19Z</when>
				<when>2024-10-26T14:11:20Z</when>
				<when>2024-10-26T14:11:21Z</when>
				<when>2024-10-26T14:11:22Z</when>
				<when>2024-10-26T14:11:23Z</when>
				<when>2024-10-26T14:11:24Z</when>
				<when>2024-10-26T14:11:25Z</when>
				<when>2024-10-26T14:11:26Z</when>
				<when>2024-10-26T14:11:27Z</when>
				<when>2024-10-26T14:11:28Z</when>
				<when>2024-10-26T14:11:30Z</when>
				<when>2024-10-26T14:11:31Z</when>
				<when>2024-10-26T14:11:32Z</when>
				<when>2024-10-26T14:11:33Z</when>
				<when>2024-10-26T14:11:34Z</when>
				<when>2024-10-26T14:11:35Z</when>
				<when>2024-10-26T14:11:36Z</when>
				<when>2024-10-26T14:11:37Z</when>
				<when>2024-10-26T14:11:38Z</when>
				<when>2024-10-26T14:11:39Z</when>
				<when>2024-10-26T14:11:40Z</when>
				<when>2024-10-26T14:11:41Z</when>
				<when>2024-10-26T14:11:42Z</when>
				<when>2024-10-26T14:11:43Z</when>
				<when>2024-10-26T14:11:44Z</when>
				<when>2024-10-26T14:11:45Z</when>
				<when>2024-10-26T14:11:46Z</when>
				<when>2024-10-26T14:11:47Z</when>
				<when>2024-10-26T14:11:47Z</when>
				<when>2024-10-26T14:11:52Z</when>
				<when>2024-10-26T14:11:53Z</when>
				<when>2024-10-26T14:11:54Z</when>
				<when>2024-10-26T14:11:55Z</when>
				<when>2024-10-26T14:11:56Z</when>
				<when>2024-10-26T14:11:57Z</when>
				<when>2024-10-26T14:11:58Z</when>
				<when>2024-10-26T14:11:59Z</when>
				<when>2024-10-26T14:12:00Z</when>
				<when>2024-10-26T14:12:01Z</when>
				<when>2024-10-26T14:12:02Z</when>
				<when>2024-10-26T14:12:03Z</when>
				<when>2024-10-26T14:12:04Z</when>
				<when>2024-10-26T14:12:05Z</when>
				<when>2024-10-26T14:12:06Z</when>
				<when>2024-10-26T14:12:07Z</when>
				<when>2024-10-26T14:12:08Z</when>
				<when>2024-10-26T14:12:09Z</when>
				<when>2024-10-26T14:12:10Z</when>
				<when>2024-10-26T14:12:11Z</when>
				<when>2024-10-26T14:12:12Z</when>
				<when>2024-10-26T14:12:13Z</when>
				<when>2024-10-26T14:12:14Z</when>
				<when>2024-10-26T14:12:15Z</when>
				<when>2024-10-26T14:12:16Z</when>
				<when>2024-10-26T14:12:17Z</when>
				<when>2024-10-26T14:12:18Z</when>
				<when>2024-10-26T14:12:19Z</when>
				<when>2024-10-26T14:12:20Z</when>
				<when>2024-10-26T14:12:21Z</when>
				<when>2024-10-26T14:12:22Z</when>
				<when>2024-10-26T14:12:23Z</when>
				<when>2024-10-26T14:12:24Z</when>
				<when>2024-10-26T14:12:25Z</when>
				<when>2024-10-26T14:12:26Z</when>
				<when>2024-10-26T14:12:27Z</when>
				<when>2024-10-26T14:12:28Z</when>
				<when>2024-10-26T14:12:29Z</when>
				<when>2024-10-26T14:12:30Z</when>
				<when>2024-10-26T14:12:31Z</when>
				<when>2024-10-26T14:12:32Z</when>
				<when>2024-10-26T14:12:33Z</when>
				<when>2024-10-26T14:12:34Z</when>
				<when>2024-10-26T14:12:35Z</when>
				<when>2024-10-26T14:12:36Z</when>
				<when>2024-10-26T14:12:37Z</when>
				<when>2024-10-26T14:12:38Z</when>
				<when>2024-10-26T14:12:39Z</when>
				<when>2024-10-26T14:12:40Z</when>
				<when>2024-10-26T14:12:41Z</when>
				<when>2024-10-26T14:12:42Z</when>
				<when>2024-10-26T14:12:43Z</when>
				<when>2024-10-26T14:12:44Z</when>
				<when>2024-10-26T14:12:45Z</when>
				<when>2024-10-26T14:12:46Z</when>
				<when>2024-10-26T14:12:47Z</when>
				<when>2024-10-26T14:12:48Z</when>
				<when>2024-10-26T14:12:49Z</when>
				<when>2024-10-26T14:12:50Z</when>
				<when>2024-10-26T14:12:51Z</when>
				<when>2024-10-26T14:12:52Z</when>
				<when>2024-10-26T14:12:53Z</when>
				<when>2024-10-26T14:12:54Z</when>
				<when>2024-10-26T14:12:55Z</when>
				<when>2024-10-26T14:12:56Z</when>
				<when>2024-10-26T14:12:57Z</when>
				<when>2024-10-26T14:12:58Z</when>
				<when>2024-10-26T14:12:59Z</when>
				<when>2024-10-26T14:13:00Z</when>
				<when>2024-10-26T14:13:01Z</when>
				<when>2024-10-26T14:13:01Z</when>
				<when>2024-10-26T14:13:02Z</when>
				<when>2024-10-26T14:13:03Z</when>
				<when>2024-10-26T14:13:04Z</when>
				<when>2024-10-26T14:13:05Z</when>
				<when>2024-10-26T14:13:06Z</when>
				<when>2024-10-26T14:13:07Z</when>
				<when>2024-10-26T14:13:08Z</when>
				<gx:coord>-82.693436 34.807709 264.899994</gx:coord>
				<gx:coord>-82.693436 34.807713 265.000000</gx:coord>
				<gx:coord>-82.693436 34.807713 265.200012</gx:coord>
				<gx:coord>-82.693436 34.807716 265.399994</gx:coord>
				<gx:coord>-82.693436 34.807716 265.500000</gx:coord>
				<gx:coord>-82.693436 34.807716 265.399994</gx:coord>
				<gx:coord>-82.693436 34.807716 265.500000</gx:coord>
				<gx:coord>-82.693436 34.807716 265.500000</gx:coord>
				<gx:coord>-82.693436 34.807716 265.600006</gx:coord>
				<gx:coord>-82.693436 34.807716 265.600006</gx:coord>
				<gx:coord>-82.693436 34.807716 265.600006</gx:coord>
				<gx:coord>-82.693436 34.807716 265.600006</gx:coord>
				<gx:coord>-82.693436 34.807716 265.600006</gx:coord>
				<gx:coord>-82.693436 34.807720 265.700012</gx:coord>
				<gx:coord>-82.693428 34.807720 265.799988</gx:coord>
				<gx:coord>-82.693428 34.807720 265.899994</gx:coord>
				<gx:coord>-82.693428 34.807724 266.000000</gx:coord>
				<gx:coord>-82.693428 34.807724 266.000000</gx:coord>
				<gx:coord>-82.693428 34.807724 266.000000</gx:coord>
				<gx:coord>-82.693428 34.807724 265.899994</gx:coord>
				<gx:coord>-82.693428 34.807724 265.899994</gx:coord>
				<gx:coord>-82.693428 34.807724 265.799988</gx:coord>
				<gx:coord>-82.693428 34.807724 265.799988</gx:coord>
				<gx:coord>-82.693428 34.807724 265.700012</gx:coord>
				<gx:coord>-82.693428 34.807724 265.700012</gx:coord>
				<gx:coord>-82.693428 34.807720 265.600006</gx:coord>
				<gx:coord>-82.693428 34.807720 265.500000</gx:coord>
				<gx:coord>-82.693428 34.807720 265.399994</gx:coord>
				<gx:coord>-82.693428 34.807720 265.299988</gx:coord>
				<gx:coord>-82.693428 34.807716 265.299988</gx:coord>
				<gx:coord>-82.693428 34.807716 265.200012</gx:coord>
				<gx:coord>-82.693428 34.807716 265.100006</gx:coord>
				<gx:coord>-82.693428 34.807716 265.100006</gx:coord>
				<gx:coord>-82.693428 34.807713 265.000000</gx:coord>
				<gx:coord>-82.693428 34.807713 265.000000</gx:coord>
				<gx:coord>-82.693428 34.807713 265.000000</gx:coord>
				<gx:coord>-82.693428 34.807713 265.000000</gx:coord>
				<gx:coord>-82.693428 34.807713 264.899994</gx:coord>
				<gx:coord>-82.693428 34.807709 265.000000</gx:coord>
				<gx:coord>-82.693428 34.807709 265.000000</gx:coord>
				<gx:coord>-82.693428 34.807705 264.899994</gx:coord>
				<gx:coord>-82.693428 34.807701 264.799988</gx:coord>
				<gx:coord>-82.693428 34.807701 264.600006</gx:coord>
				<gx:coord>-82.693428 34.807697 264.399994</gx:coord>
				<gx:coord>-82.693428 34.807693 264.299988</gx:coord>
				<gx:coord>-82.693428 34.807693 264.200012</gx:coord>
				<gx:coord>-82.693428 34.807690 264.100006</gx:coord>
				<gx:coord>-82.693428 34.807690 263.799988</gx:coord>
				<gx:coord>-82.693428 34.807686 263.600006</gx:coord>
				<gx:coord>-82.693428 34.807686 263.399994</gx:coord>
				<gx:coord>-82.693428 34.807682 263.299988</gx:coord>
				<gx:coord>-82.693428 34.807682 263.100006</gx:coord>
				<gx:coord>-82.693428 34.807678 262.700012</gx:coord>
				<gx:coord>-82.693436 34.807674 262.399994</gx:coord>
				<gx:coord>-82.693436 34.807674 261.899994</gx:coord>
				<gx:coord>-82.693436 34.807671 261.700012</gx:coord>
				<gx:coord>-82.693436 34.807671 261.299988</gx:coord>
				<gx:coord>-82.693436 34.807667 261.100006</gx:coord>
				<gx:coord>-82.693436 34.807667 260.899994</gx:coord>
				<gx:coord>-82.693436 34.807667 260.700012</gx:coord>
				<gx:coord>-82.693436 34.807667 260.500000</gx:coord>
				<gx:coord>-82.693436 34.807667 260.299988</gx:coord>
				<gx:coord>-82.693436 34.807663 260.200012</gx:coord>
				<gx:coord>-82.693436 34.807663 260.100006</gx:coord>
				<gx:coord>-82.693436 34.807663 260.100006</gx:coord>
				<gx:coord>-82.693436 34.807659 260.100006</gx:coord>
				<gx:coord>-82.693436 34.807663 260.200012</gx:coord>
				<gx:coord>-82.693436 34.807663 260.299988</gx:coord>
				<gx:coord>-82.693436 34.807663 260.399994</gx:coord>
				<gx:coord>-82.693436 34.807667 260.700012</gx:coord>
				<gx:coord>-82.693436 34.807667 260.799988</gx:coord>
				<gx:coord>-82.693436 34.807667 261.000000</gx:coord>
				<gx:coord>-82.693436 34.807667 261.200012</gx:coord>
				<gx:coord>-82.693436 34.807667 261.399994</gx:coord>
				<gx:coord>-82.693436 34.807671 261.500000</gx:coord>
				<gx:coord>-82.693436 34.807671 261.700012</gx:coord>
				<gx:coord>-82.693436 34.807667 261.700012</gx:coord>
				<gx:coord>-82.693428 34.807671 261.500000</gx:coord>
				<gx:coord>-82.693428 34.807671 261.200012</gx:coord>
				<gx:coord>-82.693428 34.807667 260.799988</gx:coord>
				<gx:coord>-82.693428 34.807667 260.399994</gx:coord>
				<gx:coord>-82.693428 34.807663 259.700012</gx:coord>
				<gx:coord>-82.693428 34.807659 259.200012</gx:coord>
				<gx:coord>-82.693420 34.807659 258.500000</gx:coord>
				<gx:coord>-82.693420 34.807659 257.600006</gx:coord>
				<gx:coord>-82.693420 34.807655 257.000000</gx:coord>
				<gx:coord>-82.693420 34.807655 256.600006</gx:coord>
				<gx:coord>-82.693413 34.807655 256.600006</gx:coord>
				<gx:coord>-82.693413 34.807652 256.399994</gx:coord>
				<gx:coord>-82.693413 34.807652 256.899994</gx:coord>
				<gx:coord>-82.693413 34.807652 256.299988</gx:coord>
				<gx:coord>-82.693413 34.807652 256.799988</gx:coord>
				<gx:coord>-82.693413 34.807652 257.899994</gx:coord>
				<gx:coord>-82.693405 34.807652 258.799988</gx:coord>
				<gx:coord>-82.693405 34.807648 259.100006</gx:coord>
				<gx:coord>-82.693398 34.807648 258.500000</gx:coord>
				<gx:coord>-82.693398 34.807644 258.700012</gx:coord>
				<gx:coord>-82.693398 34.807644 259.600006</gx:coord>
				<gx:coord>-82.693398 34.807644 260.200012</gx:coord>
				<gx:coord>-82.693398 34.807640 260.600006</gx:coord>
				<gx:coord>-82.693398 34.807640 260.399994</gx:coord>
				<gx:coord>-82.693390 34.807636 259.500000</gx:coord>
				<gx:coord>-82.693390 34.807636 258.600006</gx:coord>
				<gx:coord>-82.693390 34.807636 258.600006</gx:coord>
				<gx:coord>-82.693390 34.807632 258.100006</gx:coord>
				<gx:coord>-82.693390 34.807632 257.399994</gx:coord>
				<gx:coord>-82.693382 34.807632 256.000000</gx:coord>
				<gx:coord>-82.693390 34.807636 256.600006</gx:coord>
				<gx:coord>-82.693398 34.807636 257.000000</gx:coord>
				<gx:coord>-82.693405 34.807636 257.600006</gx:coord>
				<gx:coord>-82.693405 34.807636 258.200012</gx:coord>
				<gx:coord>-82.693413 34.807640 259.299988</gx:coord>
				<gx:coord>-82.693413 34.807640 259.799988</gx:coord>
				<gx:coord>-82.693413 34.807640 260.200012</gx:coord>
				<gx:coord>-82.693413 34.807640 260.600006</gx:coord>
				<gx:coord>-82.693413 34.807644 260.799988</gx:coord>
				<gx:coord>-82.693413 34.807644 261.000000</gx:coord>
				<gx:coord>-82.693420 34.807644 261.299988</gx:coord>
				<gx:coord>-82.693420 34.807644 261.500000</gx:coord>
				<gx:coord>-82.693420 34.807648 261.600006</gx:coord>
				<gx:coord>-82.693420 34.807652 261.700012</gx:coord>
				<gx:coord>-82.693420 34.807652 261.799988</gx:coord>
				<gx:coord>-82.693420 34.807652 261.799988</gx:coord>
				<gx:coord>-82.693420 34.807655 261.899994</gx:coord>
				<gx:coord>-82.693420 34.807655 262.000000</gx:coord>
				<gx:coord>-82.693420 34.807655 262.000000</gx:coord>
				<gx:coord>-82.693420 34.807659 262.000000</gx:coord>
				<gx:coord>-82.693420 34.807659 261.899994</gx:coord>
				<gx:coord>-82.693420 34.807659 261.799988</gx:coord>
				<gx:coord>-82.693420 34.807659 261.700012</gx:coord>
				<gx:coord>-82.693420 34.807659 261.399994</gx:coord>
				<gx:coord>-82.693428 34.807659 261.299988</gx:coord>
				<gx:coord>-82.693420 34.807659 261.200012</gx:coord>
				<gx:coord>-82.693428 34.807659 261.200012</gx:coord>
				<gx:coord>-82.693420 34.807659 260.899994</gx:coord>
				<gx:coord>-82.693420 34.807659 260.700012</gx:coord>
				<gx:coord>-82.693420 34.807659 260.700012</gx:coord>
				<gx:coord>-82.693420 34.807659 260.399994</gx:coord>
				<gx:coord>-82.693420 34.807659 260.700012</gx:coord>
				<gx:coord>-82.693420 34.807655 260.799988</gx:coord>
				<gx:coord>-82.693420 34.807655 261.299988</gx:coord>
				<gx:coord>-82.693420 34.807652 262.299988</gx:coord>
				<gx:coord>-82.693428 34.807648 262.100006</gx:coord>
				<gx:coord>-82.693428 34.807640 262.200012</gx:coord>
				<gx:coord>-82.693428 34.807640 263.200012</gx:coord>
				<gx:coord>-82.693428 34.807632 263.299988</gx:coord>
				<gx:coord>-82.693428 34.807632 263.200012</gx:coord>
				<gx:coord>-82.693428 34.807636 263.000000</gx:coord>
				<gx:coord>-82.693428 34.807632 263.399994</gx:coord>
				<gx:coord>-82.693428 34.807629 263.700012</gx:coord>
				<gx:coord>-82.693420 34.807629 263.700012</gx:coord>
				<gx:coord>-82.693428 34.807625 264.500000</gx:coord>
				<gx:coord>-82.693428 34.807621 265.200012</gx:coord>
				<gx:coord>-82.693428 34.807613 264.899994</gx:coord>
				<gx:coord>-82.693428 34.807610 264.799988</gx:coord>
				<gx:coord>-82.693420 34.807594 264.200012</gx:coord>
				<gx:coord>-82.693420 34.807583 264.000000</gx:coord>
				<gx:coord>-82.693428 34.807571 264.200012</gx:coord>
				<gx:coord>-82.693428 34.807564 263.600006</gx:coord>
				<gx:coord>-82.693428 34.807549 263.899994</gx:coord>
				<gx:coord>-82.693428 34.807541 264.000000</gx:coord>
				<gx:coord>-82.693428 34.807533 264.200012</gx:coord>
				<gx:coord>-82.693436 34.807526 264.000000</gx:coord>
				<gx:coord>-82.693436 34.807526 263.899994</gx:coord>
				<gx:coord>-82.693436 34.807522 263.600006</gx:coord>
				<gx:coord>-82.693436 34.807522 263.700012</gx:coord>
				<gx:coord>-82.693443 34.807522 264.500000</gx:coord>
				<gx:coord>-82.693443 34.807522 264.700012</gx:coord>
				<gx:coord>-82.693443 34.807522 265.100006</gx:coord>
				<gx:coord>-82.693443 34.807522 265.100006</gx:coord>
				<gx:coord>-82.693451 34.807522 265.000000</gx:coord>
				<gx:coord>-82.693451 34.807518 265.000000</gx:coord>
				<gx:coord>-82.693451 34.807510 265.500000</gx:coord>
				<gx:coord>-82.693459 34.807507 265.100006</gx:coord>
				<gx:coord>-82.693459 34.807507 265.399994</gx:coord>
				<gx:coord>-82.693459 34.807507 265.399994</gx:coord>
				<gx:coord>-82.693459 34.807503 265.700012</gx:coord>
				<gx:coord>-82.693459 34.807499 265.100006</gx:coord>
				<gx:coord>-82.693459 34.807495 265.200012</gx:coord>
				<gx:coord>-82.693459 34.807491 264.899994</gx:coord>
				<gx:coord>-82.693459 34.807491 265.100006</gx:coord>
				<gx:coord>-82.693459 34.807480 264.799988</gx:coord>
				<gx:coord>-82.693466 34.807476 264.500000</gx:coord>
				<gx:coord>-82.693466 34.807468 265.799988</gx:coord>
				<gx:coord>-82.693466 34.807468 265.500000</gx:coord>
				<gx:coord>-82.693466 34.807461 265.500000</gx:coord>
				<gx:coord>-82.693466 34.807457 265.200012</gx:coord>
				<gx:coord>-82.693474 34.807449 264.899994</gx:coord>
				<gx:coord>-82.693474 34.807446 265.100006</gx:coord>
				<gx:coord>-82.693474 34.807442 265.000000</gx:coord>
				<gx:coord>-82.693474 34.807434 265.000000</gx:coord>
				<gx:coord>-82.693474 34.807426 265.200012</gx:coord>
				<gx:coord>-82.693474 34.807426 265.000000</gx:coord>
				<gx:coord>-82.693474 34.807419 264.799988</gx:coord>
				<gx:coord>-82.693474 34.807411 264.700012</gx:coord>
				<gx:coord>-82.693474 34.807400 264.799988</gx:coord>
				<gx:coord>-82.693474 34.807396 265.000000</gx:coord>
				<gx:coord>-82.693466 34.807392 264.500000</gx:coord>
				<gx:coord>-82.693466 34.807384 264.500000</gx:coord>
				<gx:coord>-82.693466 34.807384 264.500000</gx:coord>
				<gx:coord>-82.693474 34.807381 264.399994</gx:coord>
				<gx:coord>-82.693474 34.807377 264.399994</gx:coord>
				<gx:coord>-82.693474 34.807369 264.399994</gx:coord>
				<gx:coord>-82.693474 34.807365 264.399994</gx:coord>
				<gx:coord>-82.693474 34.807362 264.100006</gx:coord>
				<gx:coord>-82.693481 34.807354 263.700012</gx:coord>
				<gx:coord>-82.693481 34.807346 263.700012</gx:coord>
				<gx:coord>-82.693481 34.807335 263.600006</gx:coord>
				<gx:coord>-82.693481 34.807327 263.799988</gx:coord>
				<gx:coord>-82.693489 34.807323 264.200012</gx:coord>
				<gx:coord>-82.693489 34.807316 263.899994</gx:coord>
				<gx:coord>-82.693489 34.807308 264.000000</gx:coord>
				<gx:coord>-82.693497 34.807297 264.000000</gx:coord>
				<gx:coord>-82.693497 34.807285 264.500000</gx:coord>
				<gx:coord>-82.693497 34.807278 264.600006</gx:coord>
				<gx:coord>-82.693497 34.807281 265.399994</gx:coord>
				<gx:coord>-82.693497 34.807289 265.000000</gx:coord>
				<gx:coord>-82.693497 34.807301 265.000000</gx:coord>
				<gx:coord>-82.693497 34.807308 264.799988</gx:coord>
				<gx:coord>-82.693497 34.807320 264.299988</gx:coord>
				<gx:coord>-82.693497 34.807320 264.500000</gx:coord>
				<gx:coord>-82.693497 34.807320 264.799988</gx:coord>
				<gx:coord>-82.693497 34.807320 265.200012</gx:coord>
				<gx:coord>-82.693497 34.807320 265.500000</gx:coord>
				<gx:coord>-82.693497 34.807320 265.500000</gx:coord>
				<gx:coord>-82.693497 34.807320 265.700012</gx:coord>
				<gx:coord>-82.693497 34.807320 265.700012</gx:coord>
				<gx:coord>-82.693497 34.807312 265.700012</gx:coord>
				<gx:coord>-82.693497 34.807301 265.600006</gx:coord>
				<gx:coord>-82.693497 34.807289 265.500000</gx:coord>
				<gx:coord>-82.693497 34.807278 265.799988</gx:coord>
				<gx:coord>-82.693504 34.807266 265.799988</gx:coord>
				<gx:coord>-82.693504 34.807255 266.299988</gx:coord>
				<gx:coord>-82.693504 34.807240 266.700012</gx:coord>
				<gx:coord>-82.693512 34.807228 267.200012</gx:coord>
				<gx:coord>-82.693512 34.807217 267.500000</gx:coord>
				<gx:coord>-82.693512 34.807205 267.799988</gx:coord>
				<gx:coord>-82.693512 34.807194 267.799988</gx:coord>
				<gx:coord>-82.693512 34.807182 268.100006</gx:coord>
				<gx:coord>-82.693520 34.807171 268.200012</gx:coord>
				<gx:coord>-82.693520 34.807156 268.200012</gx:coord>
				<gx:coord>-82.693520 34.807144 268.500000</gx:coord>
				<gx:coord>-82.693520 34.807137 267.799988</gx:coord>
				<gx:coord>-82.693520 34.807125 268.000000</gx:coord>
				<gx:coord>-82.693520 34.807114 268.100006</gx:coord>
				<gx:coord>-82.693520 34.807102 268.299988</gx:coord>
				<gx:coord>-82.693520 34.807095 268.200012</gx:coord>
				<gx:coord>-82.693520 34.807083 268.500000</gx:coord>
				<gx:coord>-82.693520 34.807072 268.600006</gx:coord>
				<gx:coord>-82.693527 34.807060 268.700012</gx:coord>
				<gx:coord>-82.693527 34.807045 268.700012</gx:coord>
				<gx:coord>-82.693527 34.807034 269.000000</gx:coord>
				<gx:coord>-82.693527 34.807022 268.899994</gx:coord>
				<gx:coord>-82.693527 34.807007 268.899994</gx:coord>
				<gx:coord>-82.693527 34.806995 268.899994</gx:coord>
				<gx:coord>-82.693527 34.806984 269.299988</gx:coord>
				<gx:coord>-82.693527 34.806973 269.399994</gx:coord>
				<gx:coord>-82.693535 34.806965 269.500000</gx:coord>
				<gx:coord>-82.693535 34.806965 269.799988</gx:coord>
				<gx:coord>-82.693535 34.806965 269.899994</gx:coord>
				<gx:coord>-82.693535 34.806961 270.000000</gx:coord>
				<gx:coord>-82.693535 34.806961 270.000000</gx:coord>
				<gx:coord>-82.693535 34.806961 270.000000</gx:coord>
				<gx:coord>-82.693535 34.806961 270.000000</gx:coord>
				<gx:coord>-82.693527 34.806950 270.000000</gx:coord>
				<gx:coord>-82.693535 34.806942 270.000000</gx:coord>
				<gx:coord>-82.693535 34.806934 270.399994</gx:coord>
				<gx:coord>-82.693535 34.806927 270.500000</gx:coord>
				<gx:coord>-82.693542 34.806923 270.399994</gx:coord>
				<gx:coord>-82.693542 34.806919 270.799988</gx:coord>
				<gx:coord>-82.693550 34.806911 270.899994</gx:coord>
				<gx:coord>-82.693550 34.806908 271.299988</gx:coord>
				<gx:coord>-82.693558 34.806896 271.399994</gx:coord>
				<gx:coord>-82.693550 34.806885 271.500000</gx:coord>
				<gx:coord>-82.693550 34.806877 271.700012</gx:coord>
				<gx:coord>-82.693550 34.806881 271.700012</gx:coord>
				<gx:coord>-82.693550 34.806881 271.799988</gx:coord>
				<gx:coord>-82.693550 34.806881 271.799988</gx:coord>
				<gx:coord>-82.693550 34.806881 271.899994</gx:coord>
				<gx:coord>-82.693550 34.806881 271.899994</gx:coord>
				<gx:coord>-82.693550 34.806881 272.000000</gx:coord>
				<gx:coord>-82.693550 34.806877 272.299988</gx:coord>
				<gx:coord>-82.693550 34.806870 272.399994</gx:coord>
				<gx:coord>-82.693550 34.806862 272.500000</gx:coord>
				<gx:coord>-82.693550 34.806850 272.700012</gx:coord>
				<gx:coord>-82.693558 34.806839 272.799988</gx:coord>
				<gx:coord>-82.693565 34.806831 273.100006</gx:coord>
				<gx:coord>-82.693565 34.806820 273.000000</gx:coord>
				<gx:coord>-82.693565 34.806812 273.100006</gx:coord>
				<gx:coord>-82.693558 34.806805 273.200012</gx:coord>
				<gx:coord>-82.693558 34.806797 273.500000</gx:coord>
				<gx:coord>-82.693550 34.806789 273.399994</gx:coord>
				<gx:coord>-82.693550 34.806786 273.299988</gx:coord>
				<gx:coord>-82.693550 34.806782 273.200012</gx:coord>
				<gx:coord>-82.693550 34.806770 273.000000</gx:coord>
				<gx:coord>-82.693550 34.806767 272.600006</gx:coord>
				<gx:coord>-82.693550 34.806763 272.700012</gx:coord>
				<gx:coord>-82.693550 34.806755 273.000000</gx:coord>
				<gx:coord>-82.693542 34.806759 273.299988</gx:coord>
				<gx:coord>-82.693550 34.806763 273.399994</gx:coord>
				<gx:coord>-82.693542 34.806763 273.500000</gx:coord>
				<gx:coord>-82.693542 34.806755 273.899994</gx:coord>
				<gx:coord>-82.693542 34.806751 273.700012</gx:coord>
				<gx:coord>-82.693542 34.806747 273.500000</gx:coord>
				<gx:coord>-82.693542 34.806747 273.200012</gx:coord>
				<gx:coord>-82.693542 34.806747 273.200012</gx:coord>
				<gx:coord>-82.693535 34.806747 273.299988</gx:coord>
				<gx:coord>-82.693542 34.806744 273.299988</gx:coord>
				<gx:coord>-82.693535 34.806740 273.399994</gx:coord>
				<gx:coord>-82.693535 34.806740 273.399994</gx:coord>
				<gx:coord>-82.693527 34.806740 273.200012</gx:coord>
				<gx:coord>-82.693527 34.806736 273.100006</gx:coord>
				<gx:coord>-82.693527 34.806728 273.200012</gx:coord>
				<gx:coord>-82.693527 34.806725 273.000000</gx:coord>
				<gx:coord>-82.693527 34.806721 273.399994</gx:coord>
				<gx:coord>-82.693527 34.806717 273.399994</gx:coord>
				<gx:coord>-82.693527 34.806709 273.600006</gx:coord>
				<gx:coord>-82.693527 34.806702 273.600006</gx:coord>
				<gx:coord>-82.693527 34.806690 274.100006</gx:coord>
				<gx:coord>-82.693527 34.806683 274.100006</gx:coord>
				<gx:coord>-82.693527 34.806671 274.200012</gx:coord>
				<gx:coord>-82.693527 34.806660 273.700012</gx:coord>
				<gx:coord>-82.693527 34.806652 273.500000</gx:coord>
				<gx:coord>-82.693527 34.806641 273.799988</gx:coord>
				<gx:coord>-82.693520 34.806629 273.500000</gx:coord>
				<gx:coord>-82.693527 34.806622 273.799988</gx:coord>
				<gx:coord>-82.693527 34.806610 273.399994</gx:coord>
				<gx:coord>-82.693535 34.806606 273.000000</gx:coord>
				<gx:coord>-82.693535 34.806602 273.200012</gx:coord>
				<gx:coord>-82.693535 34.806595 273.100006</gx:coord>
				<gx:coord>-82.693535 34.806583 272.799988</gx:coord>
				<gx:coord>-82.693535 34.806576 272.399994</gx:coord>
				<gx:coord>-82.693527 34.806568 272.000000</gx:coord>
				<gx:coord>-82.693520 34.806561 273.100006</gx:coord>
				<gx:coord>-82.693520 34.806557 272.899994</gx:coord>
				<gx:coord>-82.693527 34.806549 272.700012</gx:coord>
				<gx:coord>-82.693535 34.806545 272.500000</gx:coord>
				<gx:coord>-82.693527 34.806541 273.299988</gx:coord>
				<gx:coord>-82.693527 34.806541 273.500000</gx:coord>
				<gx:coord>-82.693520 34.806534 273.799988</gx:coord>
				<gx:coord>-82.693520 34.806526 273.399994</gx:coord>
				<gx:coord>-82.693520 34.806526 273.000000</gx:coord>
				<gx:coord>-82.693520 34.806526 273.500000</gx:coord>
				<gx:coord>-82.693520 34.806526 273.700012</gx:coord>
				<gx:coord>-82.693512 34.806526 274.000000</gx:coord>
				<gx:coord>-82.693512 34.806526 274.200012</gx:coord>
				<gx:coord>-82.693512 34.806526 274.299988</gx:coord>
				<gx:coord>-82.693512 34.806526 274.299988</gx:coord>
				<gx:coord>-82.693512 34.806526 274.000000</gx:coord>
				<gx:coord>-82.693504 34.806522 273.700012</gx:coord>
				<gx:coord>-82.693504 34.806519 273.000000</gx:coord>
				<gx:coord>-82.693512 34.806507 273.500000</gx:coord>
				<gx:coord>-82.693512 34.806499 273.700012</gx:coord>
				<gx:coord>-82.693520 34.806492 272.899994</gx:coord>
				<gx:coord>-82.693527 34.806484 273.100006</gx:coord>
				<gx:coord>-82.693535 34.806480 273.399994</gx:coord>
				<gx:coord>-82.693535 34.806473 273.299988</gx:coord>
				<gx:coord>-82.693527 34.806461 273.799988</gx:coord>
				<gx:coord>-82.693527 34.806454 274.500000</gx:coord>
				<gx:coord>-82.693527 34.806446 274.299988</gx:coord>
				<gx:coord>-82.693527 34.806438 273.799988</gx:coord>
				<gx:coord>-82.693535 34.806431 273.200012</gx:coord>
				<gx:coord>-82.693527 34.806427 273.799988</gx:coord>
				<gx:coord>-82.693527 34.806431 274.700012</gx:coord>
				<gx:coord>-82.693520 34.806427 274.700012</gx:coord>
				<gx:coord>-82.693520 34.806423 274.899994</gx:coord>
				<gx:coord>-82.693520 34.806419 274.700012</gx:coord>
				<gx:coord>-82.693520 34.806416 274.700012</gx:coord>
				<gx:coord>-82.693527 34.806412 274.500000</gx:coord>
				<gx:coord>-82.693527 34.806412 275.200012</gx:coord>
				<gx:coord>-82.693527 34.806412 274.399994</gx:coord>
				<gx:coord>-82.693527 34.806408 274.500000</gx:coord>
				<gx:coord>-82.693527 34.806400 274.399994</gx:coord>
				<gx:coord>-82.693527 34.806396 274.399994</gx:coord>
				<gx:coord>-82.693527 34.806396 274.399994</gx:coord>
				<gx:coord>-82.693527 34.806396 274.500000</gx:coord>
				<gx:coord>-82.693527 34.806396 274.500000</gx:coord>
				<gx:coord>-82.693535 34.806396 274.399994</gx:coord>
				<gx:coord>-82.693535 34.806396 274.600006</gx:coord>
				<gx:coord>-82.693527 34.806393 275.100006</gx:coord>
				<gx:coord>-82.693527 34.806393 275.299988</gx:coord>
				<gx:coord>-82.693535 34.806393 275.600006</gx:coord>
				<gx:coord>-82.693535 34.806393 276.100006</gx:coord>
				<gx:coord>-82.693527 34.806393 276.200012</gx:coord>
				<gx:coord>-82.693527 34.806393 276.500000</gx:coord>
				<gx:coord>-82.693527 34.806393 276.399994</gx:coord>
				<gx:coord>-82.693535 34.806389 276.399994</gx:coord>
				<gx:coord>-82.693527 34.806385 276.299988</gx:coord>
				<gx:coord>-82.693535 34.806381 276.600006</gx:coord>
				<gx:coord>-82.693535 34.806377 276.700012</gx:coord>
				<gx:coord>-82.693535 34.806377 276.799988</gx:coord>
				<gx:coord>-82.693535 34.806374 276.899994</gx:coord>
				<gx:coord>-82.693535 34.806370 276.799988</gx:coord>
				<gx:coord>-82.693535 34.806366 276.399994</gx:coord>
				<gx:coord>-82.693535 34.806358 276.299988</gx:coord>
				<gx:coord>-82.693535 34.806347 276.700012</gx:coord>
				<gx:coord>-82.693535 34.806339 278.100006</gx:coord>
				<gx:coord>-82.693535 34.806320 278.200012</gx:coord>
				<gx:coord>-82.693535 34.806309 278.200012</gx:coord>
				<gx:coord>-82.693535 34.806297 278.100006</gx:coord>
				<gx:coord>-82.693535 34.806286 278.100006</gx:coord>
				<gx:coord>-82.693535 34.806274 278.399994</gx:coord>
				<gx:coord>-82.693535 34.806267 278.399994</gx:coord>
				<gx:coord>-82.693535 34.806271 278.700012</gx:coord>
				<gx:coord>-82.693542 34.806274 278.600006</gx:coord>
				<gx:coord>-82.693535 34.806286 278.700012</gx:coord>
				<gx:coord>-82.693542 34.806297 278.299988</gx:coord>
				<gx:coord>-82.693542 34.806309 278.299988</gx:coord>
				<gx:coord>-82.693535 34.806316 278.100006</gx:coord>
				<gx:coord>-82.693535 34.806324 277.799988</gx:coord>
				<gx:coord>-82.693535 34.806332 277.799988</gx:coord>
				<gx:coord>-82.693535 34.806339 277.600006</gx:coord>
				<gx:coord>-82.693535 34.806339 277.700012</gx:coord>
				<gx:coord>-82.693535 34.806339 277.700012</gx:coord>
				<gx:coord>-82.693535 34.806339 277.799988</gx:coord>
				<gx:coord>-82.693535 34.806339 277.799988</gx:coord>
				<gx:coord>-82.693535 34.806316 278.000000</gx:coord>
				<gx:coord>-82.693535 34.806301 278.299988</gx:coord>
				<gx:coord>-82.693535 34.806290 278.500000</gx:coord>
				<gx:coord>-82.693535 34.806278 278.399994</gx:coord>
				<gx:coord>-82.693535 34.806271 278.399994</gx:coord>
				<gx:coord>-82.693535 34.806259 278.399994</gx:coord>
				<gx:coord>-82.693527 34.806248 278.399994</gx:coord>
				<gx:coord>-82.693527 34.806236 278.600006</gx:coord>
				<gx:coord>-82.693527 34.806225 278.600006</gx:coord>
				<gx:coord>-82.693520 34.806217 279.200012</gx:coord>
				<gx:coord>-82.693527 34.806210 279.200012</gx:coord>
				<gx:coord>-82.693527 34.806194 279.299988</gx:coord>
				<gx:coord>-82.693527 34.806187 279.299988</gx:coord>
				<gx:coord>-82.693535 34.806171 279.700012</gx:coord>
				<gx:coord>-82.693535 34.806156 279.700012</gx:coord>
				<gx:coord>-82.693527 34.806145 279.700012</gx:coord>
				<gx:coord>-82.693527 34.806129 279.799988</gx:coord>
				<gx:coord>-82.693520 34.806118 279.899994</gx:coord>
				<gx:coord>-82.693520 34.806107 279.899994</gx:coord>
				<gx:coord>-82.693520 34.806091 279.899994</gx:coord>
				<gx:coord>-82.693520 34.806080 280.100006</gx:coord>
				<gx:coord>-82.693520 34.806068 280.299988</gx:coord>
				<gx:coord>-82.693527 34.806057 280.299988</gx:coord>
				<gx:coord>-82.693527 34.806049 280.200012</gx:coord>
				<gx:coord>-82.693527 34.806046 280.299988</gx:coord>
				<gx:coord>-82.693527 34.806038 280.200012</gx:coord>
				<gx:coord>-82.693527 34.806026 280.399994</gx:coord>
				<gx:coord>-82.693527 34.806015 280.600006</gx:coord>
				<gx:coord>-82.693535 34.806004 280.899994</gx:coord>
				<gx:coord>-82.693535 34.805996 281.100006</gx:coord>
				<gx:coord>-82.693535 34.805984 281.200012</gx:coord>
				<gx:coord>-82.693535 34.805977 281.000000</gx:coord>
				<gx:coord>-82.693535 34.805977 281.100006</gx:coord>
				<gx:coord>-82.693535 34.805973 281.200012</gx:coord>
				<gx:coord>-82.693535 34.805973 281.299988</gx:coord>
				<gx:coord>-82.693535 34.805969 281.100006</gx:coord>
				<gx:coord>-82.693535 34.805969 281.100006</gx:coord>
				<gx:coord>-82.693535 34.805969 281.100006</gx:coord>
				<gx:coord>-82.693535 34.805969 281.200012</gx:coord>
				<gx:coord>-82.693535 34.805969 281.100006</gx:coord>
				<gx:coord>-82.693535 34.805969 281.000000</gx:coord>
				<gx:coord>-82.693535 34.805969 281.000000</gx:coord>
				<gx:coord>-82.693535 34.805969 281.000000</gx:coord>
				<gx:coord>-82.693535 34.805969 281.000000</gx:coord>
				<gx:coord>-82.693535 34.805965 281.000000</gx:coord>
				<gx:coord>-82.693535 34.805965 281.000000</gx:coord>
				<gx:coord>-82.693535 34.805965 281.000000</gx:coord>
				<gx:coord>-82.693535 34.805965 280.899994</gx:coord>
				<gx:coord>-82.693535 34.805965 280.799988</gx:coord>
				<gx:coord>-82.693542 34.805965 280.899994</gx:coord>
				<gx:coord>-82.693542 34.805965 280.899994</gx:coord>
				<gx:coord>-82.693542 34.805965 281.000000</gx:coord>
				<gx:coord>-82.693542 34.805965 281.000000</gx:coord>
				<gx:coord>-82.693542 34.805962 281.200012</gx:coord>
				<gx:coord>-82.693542 34.805962 281.200012</gx:coord>
				<gx:coord>-82.693542 34.805962 281.299988</gx:coord>
				<gx:coord>-82.693542 34.805962 281.399994</gx:coord>
				<gx:coord>-82.693542 34.805962 281.500000</gx:coord>
				<gx:coord>-82.693542 34.805962 281.500000</gx:coord>
				<gx:coord>-82.693542 34.805962 281.600006</gx:coord>
				<gx:coord>-82.693542 34.805962 281.600006</gx:coord>
				<gx:coord>-82.693542 34.805962 281.600006</gx:coord>
				<gx:coord>-82.693542 34.805962 281.700012</gx:coord>
				<gx:coord>-82.693542 34.805962 281.799988</gx:coord>
				<gx:coord>-82.693550 34.805962 281.899994</gx:coord>
				<gx:coord>-82.693550 34.805962 282.000000</gx:coord>
				<gx:coord>-82.693550 34.805962 282.000000</gx:coord>
				<gx:coord>-82.693550 34.805962 282.100006</gx:coord>
				<gx:coord>-82.693550 34.805962 282.100006</gx:coord>
				<gx:coord>-82.693550 34.805962 282.200012</gx:coord>
				<gx:coord>-82.693550 34.805962 282.200012</gx:coord>
				<gx:coord>-82.693550 34.805962 282.299988</gx:coord>
				<gx:coord>-82.693550 34.805962 282.500000</gx:coord>
				<gx:coord>-82.693550 34.805962 282.600006</gx:coord>
				<gx:coord>-82.693550 34.805962 282.600006</gx:coord>
				<gx:coord>-82.693550 34.805962 282.700012</gx:coord>
				<gx:coord>-82.693558 34.805962 282.799988</gx:coord>
				<gx:coord>-82.693558 34.805962 282.899994</gx:coord>
			</gx:Track>
		</Placemark>
		<Placemark>
			<name>End</name>
			<TimeStamp>
				<when>2024-10-26T14:13:08Z</when>
			</TimeStamp>
			<Point>
				<coordinates>-82.693558,34.805962,0.000000</coordinates>
			</Point>
		</Placemark>
	</Document>
</kml>
